STARLINK-6059           
1 56814U 23078AZ  26182.98465002  .00000326  00000+0  35100-4 0  9990
2 56814  70.0000  56.1516 0002680 267.8324  92.2528 14.98332325169807
STARLINK-6067           
1 56816U 23078BB  26183.55187360 -.00000019  00000+0  62292-5 0  9997
2 56816  70.0005  34.6519 0002845 270.1804  89.9029 14.98331783170382
STARLINK-6028           
1 56818U 23078BD  26183.64390249  .00002552  00000+0  22155-3 0  9996
2 56818  70.0014  54.4387 0002723 268.1631  91.9216 14.98334427170599
STARLINK-30119          
1 56823U 23079A   26182.97256230 -.00001643  00000+0 -50221-4 0  9997
2 56823  43.0049 181.8729 0001967 263.7877  96.2750 15.27565419170793
STARLINK-30120          
1 56824U 23079B   26183.44438478 -.00000157  00000+0  38402-5 0  9993
2 56824  43.0028 179.4038 0001473 278.7227  81.3458 15.27580668170753
STARLINK-30084          
1 56825U 23079C   26182.27242306  .00000626  00000+0  32279-4 0  9992
2 56825  43.0030 185.2315 0001482 268.2057  91.8625 15.27580884170263
STARLINK-30114          
1 56826U 23079D   26182.70327190  .00000257  00000+0  18842-4 0  9996
2 56826  43.0037 183.1056 0000298 353.9390   6.1458 15.27575545170638
STARLINK-30151          
1 56827U 23079E   26183.47893351  .00000437  00000+0  25406-4 0  9993
2 56827  43.0005 178.7854 0000887 268.9888  91.0862 15.27578296170448
STARLINK-30152          
1 56828U 23079F   26183.48277329  .00009593  00000+0  35816-3 0  9993
2 56828  43.0029 178.8232 0000834 293.1462  66.9302 15.27535313170449
STARLINK-30128          
1 56832U 23079K   26183.39357944  .00000187  00000+0  16332-4 0  9993
2 56832  43.0007 153.4476 0001016 254.8726 105.2013 15.27580506164329
STARLINK-30131          
1 56833U 23079L   26183.39010781  .00009708  00000+0  39709-3 0  9999
2 56833  42.9992 157.8680 0001389 121.5926 238.5060 15.24474150170672
STARLINK-30069          
1 56834U 23079M   26183.41404796 -.00000597  00000+0 -12163-4 0  9991
2 56834  43.0003 175.7568 0001267 269.3653  90.7054 15.27570610170475
STARLINK-30144          
1 56835U 23079N   26183.40892700  .00085344  00000+0  19677-2 0  9993
2 56835  42.9909 169.5931 0012711 118.6368 241.5769 15.41523822170545
STARLINK-30142          
1 56836U 23079P   26183.42560619 -.00000723  00000+0 -16754-4 0  9992
2 56836  43.0028 175.8462 0000714 284.8883  75.1889 15.27579492170471
STARLINK-30133          
1 56837U 23079Q   26182.00959948  .00000296  00000+0  20295-4 0  9991
2 56837  43.0043 186.6821 0001862 270.7613  89.3026 15.27576162170222
STARLINK-30123          
1 56838U 23079R   26183.49179313 -.00003285  00000+0 -11000-3 0  9992
2 56838  42.9987 105.5974 0000778 269.8563  90.2200 15.27558227171302
STARLINK-30076          
1 56839U 23079S   26183.47764763 -.00000627  00000+0 -13269-4 0  9997
2 56839  43.0010 178.7688 0000957 296.0187  64.0566 15.27584204170441
STARLINK-30073          
1 56840U 23079T   26183.58335648  .00006554  00000+0  24762-3 0  9999
2 56840  43.0020   3.5198 0001411 262.4311 150.5173 15.27561434  5865
STARLINK-30078          
1 56841U 23079U   26183.54244548  .00000497  00000+0  27592-4 0  9999
2 56841  43.0018 130.7339 0001638 279.2343  80.8324 15.27581705171012
STARLINK-30135          
1 56842U 23079V   26183.42637816  .00000318  00000+0  21090-4 0  9990
2 56842  43.0017 179.1625 0001112 271.7549  88.3175 15.27577889170439
STARLINK-30137          
1 56843U 23079W   26183.27118938  .00001010  00000+0  46229-4 0  9994
2 56843  43.0002 179.7179 0001451 277.6749  82.3938 15.27583119170419
STARLINK-30136          
1 56844U 23079X   26183.48147583  .00005256  00000+0  20061-3 0  9997
2 56844  43.0003 178.7078 0000709 276.2803  83.7968 15.27540519170447
2023-081A               
1 56846U 23081A   26183.62098678  .00003314  00000+0  14222-3 0  9993
2 56846  97.3696 253.4395 0002139 119.0518 241.0934 15.23399407170365
2023-081W               
1 56866U 23081W   26183.62588800  .00007151  00000+0  28726-3 0  9993
2 56866  97.2887 246.7546 0009128 322.8739  37.1867 15.25205707170387
LONGJIANG 3             
1 56874U 23082A   26183.65161309  .00020368  00000+0  50105-3 0  9998
2 56874  49.1092 325.2453 0002011 293.6806  66.3932 15.40515035171758
STARLINK-6206           
1 56876U 23083A   26183.61117673  .00000043  00000+0  11090-4 0  9991
2 56876  43.0020 156.3972 0001193 264.1448  95.9268 15.27576810169208
STARLINK-6209           
1 56877U 23083B   26183.37261313 -.00000102  00000+0  58241-5 0  9993
2 56877  43.0011 157.1875 0000810 282.1625  77.9135 15.27574182169171
STARLINK-6182           
1 56878U 23083C   26183.61760474 -.00000151  00000+0  40201-5 0  9994
2 56878  43.0013 156.4466 0000872 260.1623  99.9130 15.27574258169201
STARLINK-5707           
1 56879U 23083D   26183.62145663 -.00000053  00000+0  75873-5 0  9997
2 56879  43.0002 156.4698 0001182 277.0086  83.0632 15.27573738169205
STARLINK-6177           
1 56880U 23083E   26183.39702308  .00001962  00000+0  80845-4 0  9991
2 56880  43.0027 157.3726 0001278 262.4229  97.6477 15.27568536169173
