OBJECT_NAME,OBJECT_ID,EPOCH,MEAN_MOTION,ECCENTRICITY,INCLINATION,RA_OF_ASC_NODE,ARG_OF_PERICENTER,MEAN_ANOMALY,EPHEMERIS_TYPE,CLASSIFICATION_TYPE,NORAD_CAT_ID,ELEMENT_SET_NO,REV_AT_EPOCH,BSTAR,MEAN_MOTION_DOT,MEAN_MOTION_DDOT
STARLINK-6059,2023-078AZ,2026-07-01T23:37:53.761728,14.98332325,.00026805,70.0000,56.1516,267.8324,92.2528,0,U,56814,999,16980,.35100009E-4,.326E-5,0
STARLINK-6067,2023-078BB,2026-07-02T13:14:41.879040,14.98331783,.00028459,70.0005,34.6519,270.1804,89.9029,0,U,56816,999,17038,.6229236E-5,-.19E-6,0
STARLINK-6028,2023-078BD,2026-07-02T15:27:13.175136,14.98334427,.00027234,70.0014,54.4387,268.1631,91.9216,0,U,56818,999,17059,.22155138E-3,.2552E-4,0
STARLINK-30119,2023-079A,2026-07-01T23:20:29.382720,15.27565419,.00019676,43.0049,181.8729,263.7877,96.2750,0,U,56823,999,17079,-.50220539E-4,-.1643E-4,0
STARLINK-30120,2023-079B,2026-07-02T10:39:54.844992,15.27580668,.00014732,43.0028,179.4038,278.7227,81.3458,0,U,56824,999,17075,.3840186E-5,-.157E-5,0
STARLINK-30084,2023-079C,2026-07-01T06:32:17.352384,15.27580884,.0001482,43.0030,185.2315,268.2057,91.8625,0,U,56825,999,17026,.32279E-4,.626E-5,0
STARLINK-30114,2023-079D,2026-07-01T16:52:42.692160,15.27575545,.0000298,43.0037,183.1056,353.9390,6.1458,0,U,56826,999,17063,.18842122E-4,.257E-5,0
STARLINK-30151,2023-079E,2026-07-02T11:29:39.855264,15.27578296,.00008878,43.0005,178.7854,268.9888,91.0862,0,U,56827,999,17044,.25406027E-4,.437E-5,0
STARLINK-30152,2023-079F,2026-07-02T11:35:11.612256,15.27535313,.00008342,43.0029,178.8232,293.1462,66.9302,0,U,56828,999,17044,.35815814E-3,.9593E-4,0
STARLINK-30128,2023-079K,2026-07-02T09:26:45.263616,15.27580506,.00010165,43.0007,153.4476,254.8726,105.2013,0,U,56832,999,16432,.1633151E-4,.187E-5,0
STARLINK-30131,2023-079L,2026-07-02T09:21:45.314784,15.24474150,.00013898,42.9992,157.8680,121.5926,238.5060,0,U,56833,999,17067,.39709245E-3,.9708E-4,0
STARLINK-30069,2023-079M,2026-07-02T09:56:13.743744,15.27570610,.00012671,43.0003,175.7568,269.3653,90.7054,0,U,56834,999,17047,-.12162607E-4,-.597E-5,0
STARLINK-30144,2023-079N,2026-07-02T09:48:51.292800,15.41523822,.00127118,42.9909,169.5931,118.6368,241.5769,0,U,56835,999,17054,.19676671E-2,.85344E-3,0
STARLINK-30142,2023-079P,2026-07-02T10:12:52.374816,15.27579492,.00007148,43.0028,175.8462,284.8883,75.1889,0,U,56836,999,17047,-.16754369E-4,-.723E-5,0
STARLINK-30133,2023-079Q,2026-07-01T00:13:49.395072,15.27576162,.00018625,43.0043,186.6821,270.7613,89.3026,0,U,56837,999,17022,.20295357E-4,.296E-5,0
STARLINK-30123,2023-079R,2026-07-02T11:48:10.926432,15.27558227,.00007785,42.9987,105.5974,269.8563,90.2200,0,U,56838,999,17130,-.11000061E-3,-.3285E-4,0
STARLINK-30076,2023-079S,2026-07-02T11:27:48.755232,15.27584204,.00009573,43.0010,178.7688,296.0187,64.0566,0,U,56839,999,17044,-.13269097E-4,-.627E-5,0
STARLINK-30073,2023-079T,2026-07-02T14:00:01.999872,15.27561434,.00014117,43.0020,3.5198,262.4311,150.5173,0,U,56840,999,586,.24761559E-3,.6554E-4,0
STARLINK-30078,2023-079U,2026-07-02T13:01:07.289472,15.27581705,.00016383,43.0018,130.7339,279.2343,80.8324,0,U,56841,999,17101,.27591739E-4,.497E-5,0
STARLINK-30135,2023-079V,2026-07-02T10:13:59.073024,15.27577889,.00011125,43.0017,179.1625,271.7549,88.3175,0,U,56842,999,17043,.21089609E-4,.318E-5,0
STARLINK-30137,2023-079W,2026-07-02T06:30:30.762432,15.27583119,.00014514,43.0002,179.7179,277.6749,82.3938,0,U,56843,999,17041,.46228519E-4,.101E-4,0
STARLINK-30136,2023-079X,2026-07-02T11:33:19.511712,15.27540519,.00007092,43.0003,178.7078,276.2803,83.7968,0,U,56844,999,17044,.20061147E-3,.5256E-4,0
2023-081A,2023-081A,2026-07-02T14:54:13.257792,15.23399407,.00021392,97.3696,253.4395,119.0518,241.0934,0,U,56846,999,17036,.14221873E-3,.3314E-4,0
2023-081W,2023-081W,2026-07-02T15:01:16.723200,15.25205707,.00091284,97.2887,246.7546,322.8739,37.1867,0,U,56866,999,17038,.28726104E-3,.7151E-4,0
LONGJIANG 3,2023-082A,2026-07-02T15:38:19.370976,15.40515035,.00020111,49.1092,325.2453,293.6806,66.3932,0,U,56874,999,17175,.5010466E-3,.20368E-3,0
STARLINK-6206,2023-083A,2026-07-02T14:40:05.669472,15.27576810,.00011938,43.0020,156.3972,264.1448,95.9268,0,U,56876,999,16920,.11090418E-4,.43E-6,0
STARLINK-6209,2023-083B,2026-07-02T08:56:33.774432,15.27574182,.00008108,43.0011,157.1875,282.1625,77.9135,0,U,56877,999,16917,.5824128E-5,-.102E-5,0
STARLINK-6182,2023-083C,2026-07-02T14:49:21.049536,15.27574258,.00008727,43.0013,156.4466,260.1623,99.9130,0,U,56878,999,16920,.4020124E-5,-.151E-5,0
STARLINK-5707,2023-083D,2026-07-02T14:54:53.852832,15.27573738,.00011824,43.0002,156.4698,277.0086,83.0632,0,U,56879,999,16920,.7587255E-5,-.53E-6,0
STARLINK-6177,2023-083E,2026-07-02T09:31:42.794112,15.27568536,.00012782,43.0027,157.3726,262.4229,97.6477,0,U,56880,999,16917,.80845139E-4,.1962E-4,0
